{"type": "FeatureCollection", "features": [ {"type": "Feature", "properties": {"norad_id": 33153, "name": "INTELSAT 25 (IS-25)", "group": "intelsat", "lat": 1.7780332023054106, "lon": 136.75633454507567, "alt_km": 35797.35340981723, "timestamp": "2025-12-02T06:27:52.688678+00:00", "meta": {"OBJECT_NAME": "INTELSAT 25 (IS-25)", "OBJECT_ID": "2008-034A", "EPOCH": "2025-12-01T18:48:00.625248", "MEAN_MOTION": 1.002719, "ECCENTRICITY": 0.0005239, "INCLINATION": 2.197, "RA_OF_ASC_NODE": 82.7716, "ARG_OF_PERICENTER": 175.3348, "MEAN_ANOMALY": 63.301, "EPHEMERIS_TYPE": 0, "CLASSIFICATION_TYPE": "U", "NORAD_CAT_ID": 33153, "ELEMENT_SET_NO": 999, "REV_AT_EPOCH": 6371, "BSTAR": 0, "MEAN_MOTION_DOT": -2.02e-06, "MEAN_MOTION_DDOT": 0}, "tle": {"line1": "1 33153U 08034A   25335.78334057 -.00000202  00000+0  00000+0 0  9998", "line2": "2 33153   2.1970  82.7716 0005239 175.3348  63.3010  1.00271900 63717"}}, "geometry": {"type": "Point", "coordinates": [136.75633454507567, 1.7780332023054106]}}, {"type": "Feature", "properties": {"norad_id": 33376, "name": "GALAXY 19 (G-19)", "group": "intelsat", "lat": 0.037301773154960756, "lon": 71.30153345398571, "alt_km": 35800.70802347949, "timestamp": "2025-12-02T06:27:52.688690+00:00", "meta": {"OBJECT_NAME": "GALAXY 19 (G-19)", "OBJECT_ID": "2008-045A", "EPOCH": "2025-12-01T15:03:55.427040", "MEAN_MOTION": 1.00270124, "ECCENTRICITY": 0.0003388, "INCLINATION": 0.0183, "RA_OF_ASC_NODE": 342.846, "ARG_OF_PERICENTER": 278.184, "MEAN_ANOMALY": 298.6766, "EPHEMERIS_TYPE": 0, "CLASSIFICATION_TYPE": "U", "NORAD_CAT_ID": 33376, "ELEMENT_SET_NO": 999, "REV_AT_EPOCH": 6292, "BSTAR": 0, "MEAN_MOTION_DOT": 0, "MEAN_MOTION_DDOT": 0}, "tle": {"line1": "1 33376U 08045A   25335.62772485  .00000000  00000+0  00000+0 0  9996", "line2": "2 33376   0.0183 342.8460 0003388 278.1840 298.6766  1.00270124 62925"}}, "geometry": {"type": "Point", "coordinates": [71.30153345398571, 0.037301773154960756]}}, {"type": "Feature", "properties": {"norad_id": 35493, "name": "FM-5", "group": "intelsat", "lat": 0.02172318289022783, "lon": 82.16858470845975, "alt_km": 35785.42522534625, "timestamp": "2025-12-02T06:27:52.688701+00:00", "meta": {"OBJECT_NAME": "FM-5", "OBJECT_ID": "2009-034A", "EPOCH": "2025-12-01T18:32:17.132064", "MEAN_MOTION": 1.00270401, "ECCENTRICITY": 0.0001457, "INCLINATION": 0.0262, "RA_OF_ASC_NODE": 280.4187, "ARG_OF_PERICENTER": 241.5118, "MEAN_ANOMALY": 100.8978, "EPHEMERIS_TYPE": 0, "CLASSIFICATION_TYPE": "U", "NORAD_CAT_ID": 35493, "ELEMENT_SET_NO": 999, "REV_AT_EPOCH": 4466, "BSTAR": 0, "MEAN_MOTION_DOT": -1.79e-06, "MEAN_MOTION_DDOT": 0}, "tle": {"line1": "1 35493U 09034A   25335.77242051 -.00000179  00000+0  00000+0 0  9992", "line2": "2 35493   0.0262 280.4187 0001457 241.5118 100.8978  1.00270401 44663"}}, "geometry": {"type": "Point", "coordinates": [82.16858470845975, 0.02172318289022783]}}, {"type": "Feature", "properties": {"norad_id": 36097, "name": "INTELSAT 14 (IS-14)", "group": "intelsat", "lat": 0.017357629134643136, "lon": 123.2939800558453, "alt_km": 35793.4579247034, "timestamp": "2025-12-02T06:27:52.688713+00:00", "meta": {"OBJECT_NAME": "INTELSAT 14 (IS-14)", "OBJECT_ID": "2009-064A", "EPOCH": "2025-12-01T18:44:08.496096", "MEAN_MOTION": 1.00270493, "ECCENTRICITY": 0.000266, "INCLINATION": 0.0208, "RA_OF_ASC_NODE": 36.1549, "ARG_OF_PERICENTER": 215.3466, "MEAN_ANOMALY": 55.4318, "EPHEMERIS_TYPE": 0, "CLASSIFICATION_TYPE": "U", "NORAD_CAT_ID": 36097, "ELEMENT_SET_NO": 999, "REV_AT_EPOCH": 5862, "BSTAR": 0, "MEAN_MOTION_DOT": -2.52e-06, "MEAN_MOTION_DDOT": 0}, "tle": {"line1": "1 36097U 09064A   25335.78065389 -.00000252  00000+0  00000+0 0  9996", "line2": "2 36097   0.0208  36.1549 0002660 215.3466  55.4318  1.00270493 58629"}}, "geometry": {"type": "Point", "coordinates": [123.2939800558453, 0.017357629134643136]}}, {"type": "Feature", "properties": {"norad_id": 36106, "name": "INTELSAT 15 (IS-15)", "group": "intelsat", "lat": -0.026902823414537227, "lon": -106.51520651863034, "alt_km": 35776.411164918485, "timestamp": "2025-12-02T06:27:52.688725+00:00", "meta": {"OBJECT_NAME": "INTELSAT 15 (IS-15)", "OBJECT_ID": "2009-067A", "EPOCH": "2025-12-01T19:21:19.933344", "MEAN_MOTION": 1.00270712, "ECCENTRICITY": 0.0002364, "INCLINATION": 0.0114, "RA_OF_ASC_NODE": 302.0662, "ARG_OF_PERICENTER": 308.5106, "MEAN_ANOMALY": 195.8445, "EPHEMERIS_TYPE": 0, "CLASSIFICATION_TYPE": "U", "NORAD_CAT_ID": 36106, "ELEMENT_SET_NO": 999, "REV_AT_EPOCH": 3925, "BSTAR": 0, "MEAN_MOTION_DOT": -1.64e-06, "MEAN_MOTION_DDOT": 0}, "tle": {"line1": "1 36106U 09067A   25335.80648071 -.00000164  00000+0  00000+0 0  9990", "line2": "2 36106   0.0114 302.0662 0002364 308.5106 195.8445  1.00270712 39256"}}, "geometry": {"type": "Point", "coordinates": [-106.51520651863034, -0.026902823414537227]}}, {"type": "Feature", "properties": {"norad_id": 36131, "name": "DIRECTV 12", "group": "intelsat", "lat": 0.01988303223129943, "lon": 65.61077542363677, "alt_km": 35786.53609019758, "timestamp": "2025-12-02T06:27:52.688736+00:00", "meta": {"OBJECT_NAME": "DIRECTV 12", "OBJECT_ID": "2009-075A", "EPOCH": "2025-12-01T15:02:03.106176", "MEAN_MOTION": 1.00272171, "ECCENTRICITY": 1.49e-05, "INCLINATION": 0.0437, "RA_OF_ASC_NODE": 128.6784, "ARG_OF_PERICENTER": 88.6985, "MEAN_ANOMALY": 336.1721, "EPHEMERIS_TYPE": 0, "CLASSIFICATION_TYPE": "U", "NORAD_CAT_ID": 36131, "ELEMENT_SET_NO": 999, "REV_AT_EPOCH": 4457, "BSTAR": 0, "MEAN_MOTION_DOT": -8.2e-07, "MEAN_MOTION_DDOT": 0}, "tle": {"line1": "1 36131U 09075A   25335.62642484 -.00000082  00000+0  00000+0 0  9998", "line2": "2 36131   0.0437 128.6784 0000149  88.6985 336.1721  1.00272171 44578"}}, "geometry": {"type": "Point", "coordinates": [65.61077542363677, 0.01988303223129943]}}, {"type": "Feature", "properties": {"norad_id": 36397, "name": "INTELSAT 16 (IS-16)", "group": "intelsat", "lat": 0.018794306537881736, "lon": 92.11462579468925, "alt_km": 35795.38659541854, "timestamp": "2025-12-02T06:27:52.688748+00:00", "meta": {"OBJECT_NAME": "INTELSAT 16 (IS-16)", "OBJECT_ID": "2010-006A", "EPOCH": "2025-12-01T08:18:54.519840", "MEAN_MOTION": 1.00270849, "ECCENTRICITY": 0.00022509, "INCLINATION": 0.0099, "RA_OF_ASC_NODE": 306.6542, "ARG_OF_PERICENTER": 305.5612, "MEAN_ANOMALY": 226.7882, "EPHEMERIS_TYPE": 0, "CLASSIFICATION_TYPE": "U", "NORAD_CAT_ID": 36397, "ELEMENT_SET_NO": 999, "REV_AT_EPOCH": 5767, "BSTAR": 0, "MEAN_MOTION_DOT": -2.23e-06, "MEAN_MOTION_DDOT": 0}, "tle": {"line1": "1 36397U 10006A   25335.34646435 -.00000223  00000+0  00000+0 0  9994", "line2": "2 36397   0.0099 306.6542 0002250 305.5612 226.7882  1.00270849 57676"}}, "geometry": {"type": "Point", "coordinates": [92.11462579468925, 0.018794306537881736]}}, {"type": "Feature", "properties": {"norad_id": 37185, "name": "XM-5", "group": "intelsat", "lat": 0.061081022692381255, "lon": 53.115515093773325, "alt_km": 35788.17659205819, "timestamp": "2025-12-02T06:27:52.688760+00:00", "meta": {"OBJECT_NAME": "XM-5", "OBJECT_ID": "2010-053A", "EPOCH": "2025-12-01T20:32:28.051008", "MEAN_MOTION": 1.00269327, "ECCENTRICITY": 0.0001695, "INCLINATION": 0.065, "RA_OF_ASC_NODE": 272.3391, "ARG_OF_PERICENTER": 242.3162, "MEAN_ANOMALY": 109.2514, "EPHEMERIS_TYPE": 0, "CLASSIFICATION_TYPE": "U", "NORAD_CAT_ID": 37185, "ELEMENT_SET_NO": 999, "REV_AT_EPOCH": 5550, "BSTAR": 0, "MEAN_MOTION_DOT": -2e-08, "MEAN_MOTION_DDOT": 0}, "tle": {"line1": "1 37185U 10053A   25335.85588022 -.00000002  00000+0  00000+0 0  9990", "line2": "2 37185   0.0650 272.3391 0001695 242.3162 109.2514  1.00269327 55502"}}, "geometry": {"type": "Point", "coordinates": [53.115515093773325, 0.061081022692381255]}}, {"type": "Feature", "properties": {"norad_id": 37238, "name": "INTELSAT 17 (IS-17)", "group": "intelsat", "lat": -0.03168085789533324, "lon": -125.69376439472003, "alt_km": 35776.04194801653, "timestamp": "2025-12-02T06:27:52.688772+00:00", "meta": {"OBJECT_NAME": "INTELSAT 17 (IS-17)", "OBJECT_ID": "2010-065B", "EPOCH": "2025-12-01T19:15:50.459040", "MEAN_MOTION": 1.00272195, "ECCENTRICITY": 0.0002686, "INCLINATION": 0.0202, "RA_OF_ASC_NODE": 275.855, "ARG_OF_PERICENTER": 347.9664, "MEAN_ANOMALY": 162.0587, "EPHEMERIS_TYPE": 0, "CLASSIFICATION_TYPE": "U", "NORAD_CAT_ID": 37238, "ELEMENT_SET_NO": 999, "REV_AT_EPOCH": 5126, "BSTAR": 0, "MEAN_MOTION_DOT": 2e-07, "MEAN_MOTION_DDOT": 0}, "tle": {"line1": "1 37238U 10065B   25335.80266735  .00000020  00000+0  00000+0 0  9990", "line2": "2 37238   0.0202 275.8550 0002686 347.9664 162.0587  1.00272195 51262"}}, "geometry": {"type": "Point", "coordinates": [-125.69376439472003, -0.03168085789533324]}}, {"type": "Feature", "properties": {"norad_id": 37392, "name": "INTELSAT 28 (IS-28)", "group": "intelsat", "lat": 1.010483333672365, "lon": 136.56186765487956, "alt_km": 35795.296763993836, "timestamp": "2025-12-02T06:27:52.688783+00:00", "meta": {"OBJECT_NAME": "INTELSAT 28 (IS-28)", "OBJECT_ID": "2011-016A", "EPOCH": "2025-12-01T18:48:00.625248", "MEAN_MOTION": 1.0026993, "ECCENTRICITY": 0.0004106, "INCLINATION": 1.2937, "RA_OF_ASC_NODE": 85.1868, "ARG_OF_PERICENTER": 171.8407, "MEAN_ANOMALY": 64.1665, "EPHEMERIS_TYPE": 0, "CLASSIFICATION_TYPE": "U", "NORAD_CAT_ID": 37392, "ELEMENT_SET_NO": 999, "REV_AT_EPOCH": 5130, "BSTAR": 0, "MEAN_MOTION_DOT": -2.03e-06, "MEAN_MOTION_DDOT": 0}, "tle": {"line1": "1 37392U 11016A   25335.78334057 -.00000203  00000+0  00000+0 0  9992", "line2": "2 37392   1.2937  85.1868 0004106 171.8407  64.1665  1.00269930 51300"}}, "geometry": {"type": "Point", "coordinates": [136.56186765487956, 1.010483333672365]}}]}